55797,ONEWEB-0534,2023,109.03,-1.0,+,87.92,Active,0,LEO,USA,UK,Unknown,Unknown,Falcon,1 55797U 23029B   24012.72337065  .00000022  00000+0  21321-4 0  9997,2 55797  87.9188  90.9376 0001774 110.7755 249.3569 13.20770799 44130,13.20770799,0.0001774,LEO
55798,ONEWEB-0556,2023,109.03,-1.0,+,87.92,Active,0,LEO,USA,UK,Unknown,Unknown,Falcon,1 55798U 23029C   24012.72967940 -.00000024  00000+0 -90294-4 0  9998,2 55798  87.9189  90.9304 0001386 137.1843 222.9398 13.20771669 44137,13.20771669,0.0001386,LEO
55800,ONEWEB-0563,2023,109.03,-1.0,+,87.92,Active,0,LEO,USA,UK,Unknown,Unknown,Falcon,1 55800U 23029E   24012.71074457  .00000043  00000+0  74367-4 0  9995,2 55800  87.9189  90.9389 0001600 114.5432 245.5869 13.20770707 44121,13.20770707,0.00016,LEO
55801,ONEWEB-0564,2023,109.03,148.0,+,87.92,Active,1,LEO,USA,UK,Commercial,Communications,Falcon,1 55801U 23029F   24012.70443273  .00000082  00000+0  16941-3 0  9997,2 55801  87.9189  90.9239 0001378  94.2820 265.8470 13.20770726 44138,13.20770726,0.0001378,LEO
55803,ONEWEB-0639,2023,109.11,148.0,+,87.92,Active,1,LEO,USA,UK,Commercial,Communications,Falcon,1 55803U 23029H   24012.80941156  .00000069  00000+0  13981-3 0  9999,2 55803  87.9211 121.4134 0003153 117.3520 242.7934 13.19725688 41992,13.19725688,0.0003153,LEO
55804,ONEWEB-0640,2023,109.55,148.0,+,87.9,Active,1,LEO,USA,UK,Commercial,Communications,Falcon,1 55804U 23029J   24012.78262553  .00000258  00000+0  66025-3 0  9991,2 55804  87.8982 106.1947 0002049 133.2999 226.8302 13.14501797 42967,13.14501797,0.0002049,LEO
